ONEWEB-0095             
1 45436U 20020N   25300.11276393  .00000526  00000+0  14472-2 0  9990
2 45436  87.8833  67.4799 0001780  73.0674 287.0649 13.11418524272126
ONEWEB-0092             
1 45437U 20020P   25299.85574780 -.00000419  00000+0 -12167-2 0  9992
2 45437  87.8843  67.5269 0001544  89.8423 270.2882 13.11418449272204
ONEWEB-0085             
1 45438U 20020Q   25300.27370583  .00000539  00000+0  14844-2 0  9992
2 45438  87.8836  67.4548 0001594  97.5506 262.5803 13.11418405272141
ONEWEB-0096             
1 45439U 20020R   25300.27538875  .00000486  00000+0  13357-2 0  9992
2 45439  87.8848  67.4300 0001532 105.3411 254.7886 13.11417557272136
ONEWEB-0037             
1 45440U 20020S   25300.25589499  .00000215  00000+0  57015-3 0  9990
2 45440  87.8856  67.4004 0001601  94.5062 265.6249 13.11417298272165
ONEWEB-0042             
1 45441U 20020T   25300.26508082  .00000519  00000+0  14294-2 0  9999
2 45441  87.8842  67.4334 0001493  96.7927 263.3371 13.11418497272130
ONEWEB-0098             
1 45442U 20020U   25300.26098297  .00000430  00000+0  11773-2 0  9993
2 45442  87.8845  67.4460 0001688  98.8963 261.2356 13.11418924272116
ONEWEB-0055             
1 45443U 20020V   25300.09142340 -.00000259  00000+0 -76701-3 0  9998
2 45443  87.8845  67.4805 0001665  99.2832 260.8484 13.11419057272064
ONEWEB-0093             
1 45444U 20020W   25300.21958136 -.00000284  00000+0 -83760-3 0  9992
2 45444  87.8844  67.4413 0001188 103.9249 256.2011 13.11415509272146
ONEWEB-0029             
1 45445U 20020X   25300.08293773 -.00000670  00000+0 -19261-2 0  9990
2 45445  87.8844  67.4812 0001523 102.9881 257.1417 13.11416848272107
ONEWEB-0068             
1 45446U 20020Y   25300.06669674 -.00000237  00000+0 -70499-3 0  9996
2 45446  87.8845  67.4728 0001499 104.6594 255.4700 13.11416632272047
ONEWEB-0046             
1 45447U 20020Z   25300.05835835  .00000082  00000+0  19623-3 0  9998
2 45447  87.8841  67.4831 0001348  95.3578 264.7704 13.11416009272056
ONEWEB-0063             
1 45448U 20020AA  25300.08719241 -.00000453  00000+0 -13136-2 0  9990
2 45448  87.8844  67.4753 0001529  90.1875 269.9428 13.11417584272146
ONEWEB-0019             
1 45449U 20020AB  25300.06091502 -.00000023  00000+0 -10199-3 0  9992
2 45449  87.8836  67.4948 0001630 101.7522 258.3789 13.11414601271985
ONEWEB-0094             
1 45450U 20020AC  25300.23076806  .00000083  00000+0  18131-3 0  9991
2 45450  87.9126  52.1561 0001693 101.3200 258.8122 13.17647978275633
ONEWEB-0087             
1 45451U 20020AD  25300.09722568  .00000013  00000+0  53357-6 0  9994
2 45451  87.8854  67.4269 0001455 109.3565 250.7720 13.11419746272033
ONEWEB-0082             
1 45452U 20020AE  25300.09397115 -.00000140  00000+0 -43179-3 0  9992
2 45452  87.8854  67.4529 0001496 106.3433 253.7859 13.11419064272128
