[{"OBJECT_NAME":"ONEWEB-0095","OBJECT_ID":"2020-020N","EPOCH":"2025-10-27T02:42:22.803552","MEAN_MOTION":13.11418524,"ECCENTRICITY":0.000178,"INCLINATION":87.8833,"RA_OF_ASC_NODE":67.4799,"ARG_OF_PERICENTER":73.0674,"MEAN_ANOMALY":287.0649,"EPHEMERIS_TYPE":0,"CLASSIFICATION_TYPE":"U","NORAD_CAT_ID":45436,"ELEMENT_SET_NO":999,"REV_AT_EPOCH":27212,"BSTAR":0.0014472326,"MEAN_MOTION_DOT":5.26e-6,"MEAN_MOTION_DDOT":0},{"OBJECT_NAME":"ONEWEB-0092","OBJECT_ID":"2020-020P","EPOCH":"2025-10-26T20:32:16.609920","MEAN_MOTION":13.11418449,"ECCENTRICITY":0.00015445,"INCLINATION":87.8843,"RA_OF_ASC_NODE":67.5269,"ARG_OF_PERICENTER":89.8423,"MEAN_ANOMALY":270.2882,"EPHEMERIS_TYPE":0,"CLASSIFICATION_TYPE":"U","NORAD_CAT_ID":45437,"ELEMENT_SET_NO":999,"REV_AT_EPOCH":27220,"BSTAR":-0.0012166888,"MEAN_MOTION_DOT":-4.19e-6,"MEAN_MOTION_DDOT":0},{"OBJECT_NAME":"ONEWEB-0085","OBJECT_ID":"2020-020Q","EPOCH":"2025-10-27T06:34:08.183712","MEAN_MOTION":13.11418405,"ECCENTRICITY":0.00015949,"INCLINATION":87.8836,"RA_OF_ASC_NODE":67.4548,"ARG_OF_PERICENTER":97.5506,"MEAN_ANOMALY":262.5803,"EPHEMERIS_TYPE":0,"CLASSIFICATION_TYPE":"U","NORAD_CAT_ID":45438,"ELEMENT_SET_NO":999,"REV_AT_EPOCH":27214,"BSTAR":0.0014843693,"MEAN_MOTION_DOT":5.39e-6,"MEAN_MOTION_DDOT":0},{"OBJECT_NAME":"ONEWEB-0096","OBJECT_ID":"2020-020R","EPOCH":"2025-10-27T06:36:33.588000","MEAN_MOTION":13.11417557,"ECCENTRICITY":0.00015325,"INCLINATION":87.8848,"RA_OF_ASC_NODE":67.43,"ARG_OF_PERICENTER":105.3411,"MEAN_ANOMALY":254.7886,"EPHEMERIS_TYPE":0,"CLASSIFICATION_TYPE":"U","NORAD_CAT_ID":45439,"ELEMENT_SET_NO":999,"REV_AT_EPOCH":27213,"BSTAR":0.0013357149,"MEAN_MOTION_DOT":4.86e-6,"MEAN_MOTION_DDOT":0},{"OBJECT_NAME":"ONEWEB-0037","OBJECT_ID":"2020-020S","EPOCH":"2025-10-27T06:08:29.327136","MEAN_MOTION":13.11417298,"ECCENTRICITY":0.00016018,"INCLINATION":87.8856,"RA_OF_ASC_NODE":67.4004,"ARG_OF_PERICENTER":94.5062,"MEAN_ANOMALY":265.6249,"EPHEMERIS_TYPE":0,"CLASSIFICATION_TYPE":"U","NORAD_CAT_ID":45440,"ELEMENT_SET_NO":999,"REV_AT_EPOCH":27216,"BSTAR":0.00057014635,"MEAN_MOTION_DOT":2.15e-6,"MEAN_MOTION_DDOT":0},{"OBJECT_NAME":"ONEWEB-0042","OBJECT_ID":"2020-020T","EPOCH":"2025-10-27T06:21:42.982848","MEAN_MOTION":13.11418497,"ECCENTRICITY":0.0001493,"INCLINATION":87.8842,"RA_OF_ASC_NODE":67.4334,"ARG_OF_PERICENTER":96.7927,"MEAN_ANOMALY":263.3371,"EPHEMERIS_TYPE":0,"CLASSIFICATION_TYPE":"U","NORAD_CAT_ID":45441,"ELEMENT_SET_NO":999,"REV_AT_EPOCH":27213,"BSTAR":0.0014293733,"MEAN_MOTION_DOT":5.19e-6,"MEAN_MOTION_DDOT":0},{"OBJECT_NAME":"ONEWEB-0098","OBJECT_ID":"2020-020U","EPOCH":"2025-10-27T06:15:48.928608","MEAN_MOTION":13.11418924,"ECCENTRICITY":0.00016885,"INCLINATION":87.8845,"RA_OF_ASC_NODE":67.446,"ARG_OF_PERICENTER":98.8963,"MEAN_ANOMALY":261.2356,"EPHEMERIS_TYPE":0,"CLASSIFICATION_TYPE":"U","NORAD_CAT_ID":45442,"ELEMENT_SET_NO":999,"REV_AT_EPOCH":27211,"BSTAR":0.0011772557,"MEAN_MOTION_DOT":4.3e-6,"MEAN_MOTION_DDOT":0},{"OBJECT_NAME":"ONEWEB-0055","OBJECT_ID":"2020-020V","EPOCH":"2025-10-27T02:11:38.981760","MEAN_MOTION":13.11419057,"ECCENTRICITY":0.00016654,"INCLINATION":87.8845,"RA_OF_ASC_NODE":67.4805,"ARG_OF_PERICENTER":99.2832,"MEAN_ANOMALY":260.8484,"EPHEMERIS_TYPE":0,"CLASSIFICATION_TYPE":"U","NORAD_CAT_ID":45443,"ELEMENT_SET_NO":999,"REV_AT_EPOCH":27206,"BSTAR":-0.00076700632,"MEAN_MOTION_DOT":-2.59e-6,"MEAN_MOTION_DDOT":0},{"OBJECT_NAME":"ONEWEB-0093","OBJECT_ID":"2020-020W","EPOCH":"2025-10-27T05:16:11.829504","MEAN_MOTION":13.11415509,"ECCENTRICITY":0.00011884,"INCLINATION":87.8844,"RA_OF_ASC_NODE":67.4413,"ARG_OF_PERICENTER":103.9249,"MEAN_ANOMALY":256.2011,"EPHEMERIS_TYPE":0,"CLASSIFICATION_TYPE":"U","NORAD_CAT_ID":45444,"ELEMENT_SET_NO":999,"REV_AT_EPOCH":27214,"BSTAR":-0.00083760222,"MEAN_MOTION_DOT":-2.84e-6,"MEAN_MOTION_DDOT":0},{"OBJECT_NAME":"ONEWEB-0029","OBJECT_ID":"2020-020X","EPOCH":"2025-10-27T01:59:25.819872","MEAN_MOTION":13.11416848,"ECCENTRICITY":0.00015238,"INCLINATION":87.8844,"RA_OF_ASC_NODE":67.4812,"ARG_OF_PERICENTER":102.9881,"MEAN_ANOMALY":257.1417,"EPHEMERIS_TYPE":0,"CLASSIFICATION_TYPE":"U","NORAD_CAT_ID":45445,"ELEMENT_SET_NO":999,"REV_AT_EPOCH":27210,"BSTAR":-0.0019261089,"MEAN_MOTION_DOT":-6.7e-6,"MEAN_MOTION_DDOT":0},{"OBJECT_NAME":"ONEWEB-0068","OBJECT_ID":"2020-020Y","EPOCH":"2025-10-27T01:36:02.598336","MEAN_MOTION":13.11416632,"ECCENTRICITY":0.00014992,"INCLINATION":87.8845,"RA_OF_ASC_NODE":67.4728,"ARG_OF_PERICENTER":104.6594,"MEAN_ANOMALY":255.47,"EPHEMERIS_TYPE":0,"CLASSIFICATION_TYPE":"U","NORAD_CAT_ID":45446,"ELEMENT_SET_NO":999,"REV_AT_EPOCH":27204,"BSTAR":-0.00070498955,"MEAN_MOTION_DOT":-2.37e-6,"MEAN_MOTION_DDOT":0},{"OBJECT_NAME":"ONEWEB-0046","OBJECT_ID":"2020-020Z","EPOCH":"2025-10-27T01:24:02.161440","MEAN_MOTION":13.11416009,"ECCENTRICITY":0.00013486,"INCLINATION":87.8841,"RA_OF_ASC_NODE":67.4831,"ARG_OF_PERICENTER":95.3578,"MEAN_ANOMALY":264.7704,"EPHEMERIS_TYPE":0,"CLASSIFICATION_TYPE":"U","NORAD_CAT_ID":45447,"ELEMENT_SET_NO":999,"REV_AT_EPOCH":27205,"BSTAR":0.00019623453,"MEAN_MOTION_DOT":8.2e-7,"MEAN_MOTION_DDOT":0},{"OBJECT_NAME":"ONEWEB-0063","OBJECT_ID":"2020-020AA","EPOCH":"2025-10-27T02:05:33.424224","MEAN_MOTION":13.11417584,"ECCENTRICITY":0.00015296,"INCLINATION":87.8844,"RA_OF_ASC_NODE":67.4753,"ARG_OF_PERICENTER":90.1875,"MEAN_ANOMALY":269.9428,"EPHEMERIS_TYPE":0,"CLASSIFICATION_TYPE":"U","NORAD_CAT_ID":45448,"ELEMENT_SET_NO":999,"REV_AT_EPOCH":27214,"BSTAR":-0.001313634,"MEAN_MOTION_DOT":-4.53e-6,"MEAN_MOTION_DDOT":0},{"OBJECT_NAME":"ONEWEB-0019","OBJECT_ID":"2020-020AB","EPOCH":"2025-10-27T01:27:43.057728","MEAN_MOTION":13.11414601,"ECCENTRICITY":0.000163,"INCLINATION":87.8836,"RA_OF_ASC_NODE":67.4948,"ARG_OF_PERICENTER":101.7522,"MEAN_ANOMALY":258.3789,"EPHEMERIS_TYPE":0,"CLASSIFICATION_TYPE":"U","NORAD_CAT_ID":45449,"ELEMENT_SET_NO":999,"REV_AT_EPOCH":27198,"BSTAR":-0.00010199019,"MEAN_MOTION_DOT":-2.3e-7,"MEAN_MOTION_DDOT":0},{"OBJECT_NAME":"ONEWEB-0094","OBJECT_ID":"2020-020AC","EPOCH":"2025-10-27T05:32:18.360384","MEAN_MOTION":13.17647978,"ECCENTRICITY":0.00016938,"INCLINATION":87.9126,"RA_OF_ASC_NODE":52.1561,"ARG_OF_PERICENTER":101.32,"MEAN_ANOMALY":258.8122,"EPHEMERIS_TYPE":0,"CLASSIFICATION_TYPE":"U","NORAD_CAT_ID":45450,"ELEMENT_SET_NO":999,"REV_AT_EPOCH":27563,"BSTAR":0.000181313,"MEAN_MOTION_DOT":8.3e-7,"MEAN_MOTION_DDOT":0},{"OBJECT_NAME":"ONEWEB-0087","OBJECT_ID":"2020-020AD","EPOCH":"2025-10-27T02:20:00.298752","MEAN_MOTION":13.11419746,"ECCENTRICITY":0.0001455,"INCLINATION":87.8854,"RA_OF_ASC_NODE":67.4269,"ARG_OF_PERICENTER":109.3565,"MEAN_ANOMALY":250.772,"EPHEMERIS_TYPE":0,"CLASSIFICATION_TYPE":"U","NORAD_CAT_ID":45451,"ELEMENT_SET_NO":999,"REV_AT_EPOCH":27203,"BSTAR":5.33569e-7,"MEAN_MOTION_DOT":1.3e-7,"MEAN_MOTION_DDOT":0},{"OBJECT_NAME":"ONEWEB-0082","OBJECT_ID":"2020-020AE","EPOCH":"2025-10-27T02:15:19.107360","MEAN_MOTION":13.11419064,"ECCENTRICITY":0.00014969,"INCLINATION":87.8854,"RA_OF_ASC_NODE":67.4529,"ARG_OF_PERICENTER":106.3433,"MEAN_ANOMALY":253.7859,"EPHEMERIS_TYPE":0,"CLASSIFICATION_TYPE":"U","NORAD_CAT_ID":45452,"ELEMENT_SET_NO":999,"REV_AT_EPOCH":27212,"BSTAR":-0.00043178654,"MEAN_MOTION_DOT":-1.4e-6,"MEAN_MOTION_DDOT":0}]
